NORAD_CAT_ID,OBJECT_NAME,OBJECT_TYPE,EPOCH,MEAN_MOTION,ECCENTRICITY,INCLINATION,RA_OF_ASC_NODE,ARG_OF_PERICENTER,MEAN_ANOMALY,BSTAR,MEAN_MOTION_DOT,MEAN_MOTION_DDOT,TLE_LINE0,TLE_LINE1,TLE_LINE2,SEMIMAJOR_AXIS,PERIOD,APOGEE,PERIGEE,DECAYED
51725.0,STARLINK-3522,PAYLOAD,2022-04-25 22:00:00,15.0883826,0.0001574,53.2174,195.7874,53.9915,94.525,-0.00014153,-2.54e-05,0.0,0 STARLINK-3522,1 51725U 22016M   22115.91667824 -.00002540  00000-0 -14153-3 0  9995,2 51725  53.2174 195.7874 0001574  53.9915  94.5250 15.08838260 11125,6917.886,95.438,540.84,538.6619999999998,0.0
51725.0,STARLINK-3522,PAYLOAD,2022-04-26 06:00:00,15.08904424,0.0001671,53.2131,194.2991,50.3832,109.896,-0.0013229,-0.00021318,0.0,0 STARLINK-3522,1 51725U 22016M   22116.25001157 -.00021318  00000-0 -13229-2 0  9990,2 51725  53.2131 194.2991 0001671  50.3832 109.8960 15.08904424 11178,6917.683000000001,95.433,540.7040000000002,538.393,0.0
51725.0,STARLINK-3522,PAYLOAD,2022-04-26 14:00:01,15.08848049,0.0001814,53.2135,192.8043,43.7582,128.2124,-0.0045034,-0.00071268,0.0,0 STARLINK-3522,1 51725U 22016M   22116.58335648 -.00071268  00000-0 -45034-2 0  9999,2 51725  53.2135 192.8043 0001814  43.7582 128.2124 15.08848049 11224,6917.856,95.437,540.976,538.466,0.0
51725.0,STARLINK-3522,PAYLOAD,2022-04-26 22:00:00,15.08807951,0.0001665999999999,53.2136,191.3066,44.3753,139.1078,-0.0038673,-0.0006126,0.0,0 STARLINK-3522,1 51725U 22016M   22116.91667824 -.00061260  00000-0 -38673-2 0  9992,2 51725  53.2136 191.3066 0001666  44.3753 139.1078 15.08807951  3605,6917.978,95.44,540.996,538.691,0.0
51725.0,STARLINK-3522,PAYLOAD,2022-04-27 06:00:00,15.08758775,0.0001624,53.2139,189.81,48.6879,146.3236,0.0043008,0.00068674,0.0,0 STARLINK-3522,1 51725U 22016M   22117.25001157  .00068674  00000-0  43008-2 0  9993,2 51725  53.2139 189.8100 0001624  48.6879 146.3236 15.08758775 11322,6918.129,95.443,541.117,538.87,0.0
51725.0,STARLINK-3522,PAYLOAD,2022-04-27 14:00:01,15.08778639,0.0001774999999999,53.2137,188.3153,41.3251,165.2748,0.0077421999999999,0.00124912,0.0,0 STARLINK-3522,1 51725U 22016M   22117.58335648  .00124912  00000-0  77422-2 0  9999,2 51725  53.2137 188.3153 0001775  41.3251 165.2748 15.08778639  3604,6918.068,95.441,541.161,538.705,0.0
51725.0,STARLINK-3522,PAYLOAD,2022-04-28 06:00:00,15.08869905,0.0001609,53.214,185.321,47.8663,181.8682,0.00048665,7.472e-05,0.0,0 STARLINK-3522,1 51725U 22016M   22118.25001157  .00007472  00000-0  48665-3 0  9998,2 51725  53.2140 185.3210 0001609  47.8663 181.8682 15.08869905 11475,6917.7890000000025,95.436,540.7669999999998,538.5409999999998,0.0
51725.0,STARLINK-3522,PAYLOAD,2022-04-28 14:00:01,15.08868487,0.0001854,53.2137,183.826,42.5258,198.8453,4.9205e-05,4.96e-06,0.0,0 STARLINK-3522,1 51725U 22016M   22118.58334491  .00000496  00000-0  49205-4 0  9995,2 51725  53.2137 183.8260 0001854  42.5258 198.8453 15.08868487  3641,6917.793000000002,95.436,540.941,538.376,0.0
51725.0,STARLINK-3522,PAYLOAD,2022-04-29 06:00:00,15.08847151,0.0001728,53.2135,180.8315,50.9577,213.6727,-0.00045629,-7.544e-05,0.0,0 STARLINK-3522,1 51725U 22016M   22119.25001157 -.00007544  00000-0 -45629-3 0  9998,2 51725  53.2135 180.8315 0001728  50.9577 213.6727 15.08847151 11626,6917.859,95.437,540.919,538.528,0.0
51725.0,STARLINK-3522,PAYLOAD,2022-04-29 14:00:01,15.08824855,0.0001862,53.2131,179.3367,44.304,231.9167,0.00086086,0.00013434,0.0,0 STARLINK-3522,1 51725U 22016M   22119.58334491  .00013434  00000-0  86086-3 0  9999,2 51725  53.2131 179.3367 0001862  44.3040 231.9167 15.08824855  3632,6917.927,95.439,541.08,538.504,0.0
51725.0,STARLINK-3522,PAYLOAD,2022-04-29 22:00:00,15.08829861,0.0001713,53.2128,177.8385,48.1918,239.6244,-0.0030121,-0.00047894,0.0,0 STARLINK-3522,1 51725U 22016M   22119.91667824 -.00047894  00000-0 -30121-2 0  9992,2 51725  53.2128 177.8385 0001713  48.1918 239.6244 15.08829861  3613,6917.911,95.438,540.961,538.591,0.0
51725.0,STARLINK-3522,PAYLOAD,2022-04-30 06:00:00,15.08811055,0.0001764,53.2127,176.3423,52.3095,247.0625,-0.00032389,-5.435e-05,0.0,0 STARLINK-3522,1 51725U 22016M   22120.25001157 -.00005435  00000-0 -32389-3 0  9996,2 51725  53.2127 176.3423 0001764  52.3095 247.0625 15.08811055 11776,6917.969,95.439,541.054,538.614,0.0
51725.0,STARLINK-3522,PAYLOAD,2022-04-30 14:00:01,15.08779407,0.0001933,53.2123,174.8474,46.5901,264.3343,0.0032260999999999,0.00051345,0.0,0 STARLINK-3522,1 51725U 22016M   22120.58334491  .00051345  00000-0  32261-2 0  9999,2 51725  53.2123 174.8474 0001933  46.5901 264.3343 15.08779407  3606,6918.066,95.441,541.268,538.5930000000002,0.0
51725.0,STARLINK-3522,PAYLOAD,2022-04-30 22:00:00,15.08806871,0.0001774999999999,53.212,173.3492,51.0714,271.41200000000003,0.001228,0.00019292,0.0,0 STARLINK-3522,1 51725U 22016M   22120.91667824  .00019292  00000-0  12280-2 0  9999,2 51725  53.2120 173.3492 0001775  51.0714 271.4120 15.08806871  3590,6917.982,95.44,541.075,538.619,0.0
51725.0,STARLINK-3522,PAYLOAD,2022-05-01 14:00:01,15.08805877,0.000197,53.2127,170.3579,46.9207,298.706,0.0030579,0.0004867,0.0,0 STARLINK-3522,1 51725U 22016M   22121.58334491  .00048670  00000-0  30579-2 0  9997,2 51725  53.2127 170.3579 0001970  46.9207 298.7060 15.08805877 11978,6917.985,95.44,541.2130000000002,538.487,0.0
51725.0,STARLINK-3522,PAYLOAD,2022-05-01 22:00:01,15.08824524,0.0001829,53.2138,168.8596,51.3155,305.9613,0.0016159,0.00025512,0.0,0 STARLINK-3522,1 51725U 22016M   22121.91668981  .00025512  00000-0  16159-2 0  9996,2 51725  53.2138 168.8596 0001829  51.3155 305.9613 15.08824524  3624,6917.928000000001,95.439,541.058,538.5269999999998,0.0
51725.0,STARLINK-3522,PAYLOAD,2022-05-02 14:00:01,15.08832298,0.0002033,53.2136,165.8684,46.8532,333.557,0.003178,0.00050644,0.0,0 STARLINK-3522,1 51725U 22016M   22122.58334491  .00050644  00000-0  31780-2 0  9997,2 51725  53.2136 165.8684 0002033  46.8532 333.5570 15.08832298  3630,6917.904,95.438,541.175,538.363,0.0
51725.0,STARLINK-3522,PAYLOAD,2022-05-02 22:00:01,15.08838691,0.0001876,53.2136,164.3699,51.2411,340.8379,0.0019177,0.00030363,0.0,0 STARLINK-3522,1 51725U 22016M   22122.91668981  .00030363  00000-0  19177-2 0  9990,2 51725  53.2136 164.3699 0001876  51.2411 340.8379 15.08838691 12181,6917.884,95.438,541.047,538.452,0.0
51725.0,STARLINK-3522,PAYLOAD,2022-05-03 14:00:01,15.08817546,0.0002033,53.2137,161.3787,44.3559,10.8802,0.0026026,0.00041351,0.0,0 STARLINK-3522,1 51725U 22016M   22123.58334491  .00041351  00000-0  26026-2 0  9990,2 51725  53.2137 161.3787 0002033  44.3559  10.8802 15.08817546 12281,6917.949000000001,95.439,541.22,538.408,0.0
51725.0,STARLINK-3522,PAYLOAD,2022-05-03 22:00:00,15.08824257,0.0001871,53.214,159.8804,49.3974,17.4374,0.0022936,0.00036388,0.0,0 STARLINK-3522,1 51725U 22016M   22123.91667824  .00036388  00000-0  22936-2 0  9996,2 51725  53.2140 159.8804 0001871  49.3974  17.4374 15.08824257  3613,6917.929,95.439,541.0880000000002,538.499,0.0
51725.0,STARLINK-3522,PAYLOAD,2022-05-04 06:00:02,15.08867169,0.0001993,53.2142,158.3846,49.4265,29.0606,-0.0016523,-0.00026508,0.0,0 STARLINK-3522,1 51725U 22016M   22124.25002315 -.00026508  00000-0 -16523-2 0  9992,2 51725  53.2142 158.3846 0001993  49.4265  29.0606 15.08867169 12384,6917.797,95.436,541.0409999999998,538.284,0.0
51725.0,STARLINK-3522,PAYLOAD,2022-05-04 14:00:01,15.08851477,0.0002071,53.2141,156.8891,43.7955,46.242,-0.00026272,-4.468e-05,0.0,0 STARLINK-3522,1 51725U 22016M   22124.58334491 -.00004468  00000-0 -26272-3 0  9995,2 51725  53.2141 156.8891 0002071  43.7955  46.2420 15.08851477  3589,6917.845,95.437,541.143,538.278,0.0
51725.0,STARLINK-3522,PAYLOAD,2022-05-04 22:00:01,15.08813612,0.0001836,53.2144,155.3908,47.7599,53.9587,0.0026074,0.00041423,0.0,0 STARLINK-3522,1 51725U 22016M   22124.91668981  .00041423  00000-0  26074-2 0  9995,2 51725  53.2144 155.3908 0001836  47.7599  53.9587 15.08813612  3635,6917.9609999999975,95.439,541.096,538.556,0.0
51725.0,STARLINK-3522,PAYLOAD,2022-05-05 06:00:00,15.0885399,0.0001963,53.2147,153.8953,47.7255,65.5056,-0.0017164,-0.00027512,0.0,0 STARLINK-3522,1 51725U 22016M   22125.25001157 -.00027512  00000-0 -17164-2 0  9994,2 51725  53.2147 153.8953 0001963  47.7255  65.5056 15.08853990 12533,6917.8380000000025,95.437,541.061,538.345,0.0
51725.0,STARLINK-3522,PAYLOAD,2022-05-05 14:00:01,15.08831637,0.0002062,53.2144,152.3997,43.2552,81.5745,0.0016196,0.00025576,0.0,0 STARLINK-3522,1 51725U 22016M   22125.58334491  .00025576  00000-0  16196-2 0  9990,2 51725  53.2144 152.3997 0002062  43.2552  81.5745 15.08831637  3621,6917.906,95.438,541.197,538.344,0.0
51725.0,STARLINK-3522,PAYLOAD,2022-05-05 22:00:00,15.08823496,0.0001839,53.2148,150.9015,48.227,88.208,0.0016374,0.00025856,0.0,0 STARLINK-3522,1 51725U 22016M   22125.91667824  .00025856  00000-0  16374-2 0  9995,2 51725  53.2148 150.9015 0001839  48.2270  88.2080 15.08823496 12634,6917.931,95.439,541.068,538.524,0.0
51725.0,STARLINK-3522,PAYLOAD,2022-05-06 14:00:01,15.08834697,0.0002036,53.2146,147.9104,43.5636,116.0522,0.00098671,0.00015448,0.0,0 STARLINK-3522,1 51725U 22016M   22126.58334491  .00015448  00000-0  98671-3 0  9997,2 51725  53.2146 147.9104 0002036  43.5636 116.0522 15.08834697 12738,6917.897,95.438,541.17,538.3530000000002,0.0
51725.0,STARLINK-3522,PAYLOAD,2022-05-07 06:00:02,15.08836798,0.0001876,53.2149,144.9172,45.8808,136.9933,-0.0021441,-0.00034247,0.0,0 STARLINK-3522,1 51725U 22016M   22127.25002315 -.00034247  00000-0 -21441-2 0  9999,2 51725  53.2149 144.9172 0001876  45.8808 136.9933 15.08836798 12832,6917.89,95.438,541.053,538.457,0.0
51725.0,STARLINK-3522,PAYLOAD,2022-05-07 14:00:01,15.08819837,0.0001966,53.2144,143.4213,42.8841,151.4995,0.0002325,3.412e-05,0.0,0 STARLINK-3522,1 51725U 22016M   22127.58334491  .00003412  00000-0  23250-3 0  9997,2 51725  53.2144 143.4213 0001966  42.8841 151.4995 15.08819837  3612,6917.941999999999,95.439,541.1669999999998,538.447,0.0
